{"type":"FeatureCollection","name":"서울 지하철 2호선 역","features":[{"type":"Feature","properties":{"sub_nm":"홍대입구"},"geometry":{"type":"Point","coordinates":[126.923924,37.556952]}},{"type":"Feature","properties":{"sub_nm":"합정"},"geometry":{"type":"Point","coordinates":[126.914576,37.549968]}},{"type":"Feature","properties":{"sub_nm":"당산"},"geometry":{"type":"Point","coordinates":[126.902667,37.534841]}},{"type":"Feature","properties":{"sub_nm":"영등포구청"},"geometry":{"type":"Point","coordinates":[126.89664,37.525688]}},{"type":"Feature","properties":{"sub_nm":"문래"},"geometry":{"type":"Point","coordinates":[126.894823,37.517983]}},{"type":"Feature","properties":{"sub_nm":"신도림"},"geometry":{"type":"Point","coordinates":[126.891289,37.508664]}},{"type":"Feature","properties":{"sub_nm":"양천구청"},"geometry":{"type":"Point","coordinates":[126.865596,37.512317]}},{"type":"Feature","properties":{"sub_nm":"신정네거리"},"geometry":{"type":"Point","coordinates":[126.852814,37.520204]}},{"type":"Feature","properties":{"sub_nm":"까치산"},"geometry":{"type":"Point","coordinates":[126.846904,37.531449]}},{"type":"Feature","properties":{"sub_nm":"대림"},"geometry":{"type":"Point","coordinates":[126.894943,37.493392]}},{"type":"Feature","properties":{"sub_nm":"구로디지털단지"},"geometry":{"type":"Point","coordinates":[126.901548,37.485245]}},{"type":"Feature","properties":{"sub_nm":"신대방"},"geometry":{"type":"Point","coordinates":[126.913331,37.487596]}},{"type":"Feature","properties":{"sub_nm":"신림"},"geometry":{"type":"Point","coordinates":[126.929432,37.484253]}},{"type":"Feature","properties":{"sub_nm":"봉천"},"geometry":{"type":"Point","coordinates":[126.941589,37.482484]}},{"type":"Feature","properties":{"sub_nm":"서울대입구"},"geometry":{"type":"Point","coordinates":[126.952729,37.481213]}},{"type":"Feature","properties":{"sub_nm":"낙성대"},"geometry":{"type":"Point","coordinates":[126.963489,37.477097]}},{"type":"Feature","properties":{"sub_nm":"사당"},"geometry":{"type":"Point","coordinates":[126.981644,37.476561]}},{"type":"Feature","properties":{"sub_nm":"방배"},"geometry":{"type":"Point","coordinates":[126.997669,37.481509]}},{"type":"Feature","properties":{"sub_nm":"서초"},"geometry":{"type":"Point","coordinates":[127.007974,37.491922]}},{"type":"Feature","properties":{"sub_nm":"교대"},"geometry":{"type":"Point","coordinates":[127.014256,37.493867]}},{"type":"Feature","properties":{"sub_nm":"강남"},"geometry":{"type":"Point","coordinates":[127.027767,37.497987]}},{"type":"Feature","properties":{"sub_nm":"역삼"},"geometry":{"type":"Point","coordinates":[127.036596,37.500714]}},{"type":"Feature","properties":{"sub_nm":"선릉"},"geometry":{"type":"Point","coordinates":[127.049013,37.504509]}},{"type":"Feature","properties":{"sub_nm":"삼성"},"geometry":{"type":"Point","coordinates":[127.063149,37.508859]}},{"type":"Feature","properties":{"sub_nm":"종합운동장"},"geometry":{"type":"Point","coordinates":[127.073719,37.511047]}},{"type":"Feature","properties":{"sub_nm":"잠실새내"},"geometry":{"type":"Point","coordinates":[127.086142,37.511603]}},{"type":"Feature","properties":{"sub_nm":"잠실"},"geometry":{"type":"Point","coordinates":[127.10024,37.513389]}},{"type":"Feature","properties":{"sub_nm":"잠실나루"},"geometry":{"type":"Point","coordinates":[127.103822,37.52067]}},{"type":"Feature","properties":{"sub_nm":"강변"},"geometry":{"type":"Point","coordinates":[127.09468,37.53514]}},{"type":"Feature","properties":{"sub_nm":"구의"},"geometry":{"type":"Point","coordinates":[127.086174,37.537114]}},{"type":"Feature","properties":{"sub_nm":"건대입구"},"geometry":{"type":"Point","coordinates":[127.069188,37.540412]}},{"type":"Feature","properties":{"sub_nm":"성수"},"geometry":{"type":"Point","coordinates":[127.055982,37.544591]}},{"type":"Feature","properties":{"sub_nm":"뚝섬"},"geometry":{"type":"Point","coordinates":[127.047357,37.547244]}},{"type":"Feature","properties":{"sub_nm":"용답"},"geometry":{"type":"Point","coordinates":[127.050829,37.562236]}},{"type":"Feature","properties":{"sub_nm":"신답"},"geometry":{"type":"Point","coordinates":[127.047001,37.569912]}},{"type":"Feature","properties":{"sub_nm":"용두"},"geometry":{"type":"Point","coordinates":[127.038115,37.574058]}},{"type":"Feature","properties":{"sub_nm":"신설동"},"geometry":{"type":"Point","coordinates":[127.025245,37.574626]}},{"type":"Feature","properties":{"sub_nm":"한양대"},"geometry":{"type":"Point","coordinates":[127.043648,37.555799]}},{"type":"Feature","properties":{"sub_nm":"왕십리"},"geometry":{"type":"Point","coordinates":[127.037539,37.561269]}},{"type":"Feature","properties":{"sub_nm":"상왕십리"},"geometry":{"type":"Point","coordinates":[127.029113,37.564463]}},{"type":"Feature","properties":{"sub_nm":"신당"},"geometry":{"type":"Point","coordinates":[127.019535,37.565693]}},{"type":"Feature","properties":{"sub_nm":"동대문역사문화공원"},"geometry":{"type":"Point","coordinates":[127.008965,37.565672]}},{"type":"Feature","properties":{"sub_nm":"을지로4가"},"geometry":{"type":"Point","coordinates":[126.997512,37.566611]}},{"type":"Feature","properties":{"sub_nm":"을지로3가"},"geometry":{"type":"Point","coordinates":[126.991048,37.566308]}},{"type":"Feature","properties":{"sub_nm":"을지로입구"},"geometry":{"type":"Point","coordinates":[126.982369,37.566048]}},{"type":"Feature","properties":{"sub_nm":"시청"},"geometry":{"type":"Point","coordinates":[126.975296,37.563549]}},{"type":"Feature","properties":{"sub_nm":"충정로"},"geometry":{"type":"Point","coordinates":[126.964452,37.559766]}},{"type":"Feature","properties":{"sub_nm":"아현"},"geometry":{"type":"Point","coordinates":[126.956166,37.557396]}},{"type":"Feature","properties":{"sub_nm":"이대"},"geometry":{"type":"Point","coordinates":[126.945855,37.556777]}},{"type":"Feature","properties":{"sub_nm":"신촌"},"geometry":{"type":"Point","coordinates":[126.936826,37.555166]}},{"type":"Feature","properties":{"sub_nm":"도림천"},"geometry":{"type":"Point","coordinates":[126.882635,37.514479]}}]}